[
    {
        "OBJECT_NAME": "ISS (ZARYA)",
        "OBJECT_ID": "1998-067A",
        "EPOCH": "2024-09-15T00:58:12.885024",
        "MEAN_MOTION": 15.49088255,
        "ECCENTRICITY": 0.0007613,
        "INCLINATION": 51.6359,
        "RA_OF_ASC_NODE": 230.2949,
        "ARG_OF_PERICENTER": 354.9391,
        "MEAN_ANOMALY": 85.5828,
        "EPHEMERIS_TYPE": 0,
        "CLASSIFICATION_TYPE": "U",
        "NORAD_CAT_ID": 25544,
        "ELEMENT_SET_NO": 999,
        "REV_AT_EPOCH": 47248,
        "BSTAR": -0.00036841,
        "MEAN_MOTION_DOT": -0.00020782,
        "MEAN_MOTION_DDOT": 0,
        "date_fetched": "2024-09-15T05:01:03.312579Z"
    },
    {
        "OBJECT_NAME": "ISS (ZARYA)",
        "OBJECT_ID": "1998-067A",
        "EPOCH": "2024-09-15T19:31:07.923360",
        "MEAN_MOTION": 15.49164473,
        "ECCENTRICITY": 0.0007649,
        "INCLINATION": 51.6381,
        "RA_OF_ASC_NODE": 226.4677,
        "ARG_OF_PERICENTER": 358.1564,
        "MEAN_ANOMALY": 75.3976,
        "EPHEMERIS_TYPE": 0,
        "CLASSIFICATION_TYPE": "U",
        "NORAD_CAT_ID": 25544,
        "ELEMENT_SET_NO": 999,
        "REV_AT_EPOCH": 47260,
        "BSTAR": 0.00046311,
        "MEAN_MOTION_DOT": 0.00025315,
        "MEAN_MOTION_DDOT": 0,
        "date_fetched": "2024-09-16T00:39:39.624925Z"
    },
    {
        "OBJECT_NAME": "ISS (ZARYA)",
        "OBJECT_ID": "1998-067A",
        "EPOCH": "2024-09-16T20:20:37.366080",
        "MEAN_MOTION": 15.49233013,
        "ECCENTRICITY": 0.0007739,
        "INCLINATION": 51.6363,
        "RA_OF_ASC_NODE": 221.3415,
        "ARG_OF_PERICENTER": 357.9498,
        "MEAN_ANOMALY": 88.1484,
        "EPHEMERIS_TYPE": 0,
        "CLASSIFICATION_TYPE": "U",
        "NORAD_CAT_ID": 25544,
        "ELEMENT_SET_NO": 999,
        "REV_AT_EPOCH": 47276,
        "BSTAR": 0.0014358,
        "MEAN_MOTION_DOT": 0.00080194,
        "MEAN_MOTION_DDOT": 0,
        "date_fetched": "2024-09-17T00:30:48.367406Z"
    },
    {
        "OBJECT_NAME": "ISS (ZARYA)",
        "OBJECT_ID": "1998-067A",
        "EPOCH": "2024-09-17T21:08:41.589024",
        "MEAN_MOTION": 15.49266273,
        "ECCENTRICITY": 0.0007438,
        "INCLINATION": 51.6369,
        "RA_OF_ASC_NODE": 216.2377,
        "ARG_OF_PERICENTER": 3.8272,
        "MEAN_ANOMALY": 89.5135,
        "EPHEMERIS_TYPE": 0,
        "CLASSIFICATION_TYPE": "U",
        "NORAD_CAT_ID": 25544,
        "ELEMENT_SET_NO": 999,
        "REV_AT_EPOCH": 47292,
        "BSTAR": 0.00040562,
        "MEAN_MOTION_DOT": 0.00022186,
        "MEAN_MOTION_DDOT": 0,
        "date_fetched": "2024-09-18T00:36:51.244290Z"
    },
    {
        "OBJECT_NAME": "ISS (ZARYA)",
        "OBJECT_ID": "1998-067A",
        "EPOCH": "2024-09-18T19:57:54.272160",
        "MEAN_MOTION": 15.49311006,
        "ECCENTRICITY": 0.0007387,
        "INCLINATION": 51.6372,
        "RA_OF_ASC_NODE": 211.5317,
        "ARG_OF_PERICENTER": 6.933,
        "MEAN_ANOMALY": 353.1759,
        "EPHEMERIS_TYPE": 0,
        "CLASSIFICATION_TYPE": "U",
        "NORAD_CAT_ID": 25544,
        "ELEMENT_SET_NO": 999,
        "REV_AT_EPOCH": 47307,
        "BSTAR": 0.00037415,
        "MEAN_MOTION_DOT": 0.00020458,
        "MEAN_MOTION_DDOT": 0,
        "date_fetched": "2024-09-19T00:37:28.338442Z"
    },
    {
        "OBJECT_NAME": "ISS (ZARYA)",
        "OBJECT_ID": "1998-067A",
        "EPOCH": "2024-09-19T19:11:08.279232",
        "MEAN_MOTION": 15.4935153,
        "ECCENTRICITY": 0.0007421,
        "INCLINATION": 51.6373,
        "RA_OF_ASC_NODE": 206.7434,
        "ARG_OF_PERICENTER": 10.2584,
        "MEAN_ANOMALY": 349.8555,
        "EPHEMERIS_TYPE": 0,
        "CLASSIFICATION_TYPE": "U",
        "NORAD_CAT_ID": 25544,
        "ELEMENT_SET_NO": 999,
        "REV_AT_EPOCH": 47322,
        "BSTAR": 0.00041611,
        "MEAN_MOTION_DOT": 0.00022843,
        "MEAN_MOTION_DDOT": 0,
        "date_fetched": "2024-09-20T00:37:26.277424Z"
    },
    {
        "OBJECT_NAME": "ISS (ZARYA)",
        "OBJECT_ID": "1998-067A",
        "EPOCH": "2024-09-20T19:57:12.828672",
        "MEAN_MOTION": 15.49392281,
        "ECCENTRICITY": 0.0007401,
        "INCLINATION": 51.6372,
        "RA_OF_ASC_NODE": 201.6351,
        "ARG_OF_PERICENTER": 13.9237,
        "MEAN_ANOMALY": 346.1954,
        "EPHEMERIS_TYPE": 0,
        "CLASSIFICATION_TYPE": "U",
        "NORAD_CAT_ID": 25544,
        "ELEMENT_SET_NO": 999,
        "REV_AT_EPOCH": 47338,
        "BSTAR": 0.00038561,
        "MEAN_MOTION_DOT": 0.00021162,
        "MEAN_MOTION_DDOT": 0,
        "date_fetched": "2024-09-21T00:36:42.816206Z"
    },
    {
        "OBJECT_NAME": "ISS (ZARYA)",
        "OBJECT_ID": "1998-067A",
        "EPOCH": "2024-09-21T20:53:44.774304",
        "MEAN_MOTION": 15.49438022,
        "ECCENTRICITY": 0.0007538,
        "INCLINATION": 51.6383,
        "RA_OF_ASC_NODE": 196.4913,
        "ARG_OF_PERICENTER": 17.7526,
        "MEAN_ANOMALY": 23.0585,
        "EPHEMERIS_TYPE": 0,
        "CLASSIFICATION_TYPE": "U",
        "NORAD_CAT_ID": 25544,
        "ELEMENT_SET_NO": 999,
        "REV_AT_EPOCH": 47354,
        "BSTAR": 0.00057308,
        "MEAN_MOTION_DOT": 0.00031767,
        "MEAN_MOTION_DDOT": 0,
        "date_fetched": "2024-09-22T00:41:58.041457Z"
    },
    {
        "OBJECT_NAME": "ISS (ZARYA)",
        "OBJECT_ID": "1998-067A",
        "EPOCH": "2024-09-22T20:07:08.910912",
        "MEAN_MOTION": 15.49457798,
        "ECCENTRICITY": 0.0007529,
        "INCLINATION": 51.6381,
        "RA_OF_ASC_NODE": 191.7013,
        "ARG_OF_PERICENTER": 17.1847,
        "MEAN_ANOMALY": 24.7193,
        "EPHEMERIS_TYPE": 0,
        "CLASSIFICATION_TYPE": "U",
        "NORAD_CAT_ID": 25544,
        "ELEMENT_SET_NO": 999,
        "REV_AT_EPOCH": 47369,
        "BSTAR": 0.00015382,
        "MEAN_MOTION_DOT": 8.173e-05,
        "MEAN_MOTION_DDOT": 0,
        "date_fetched": "2024-09-23T00:39:20.777207Z"
    }
]